{
  "type": "FeatureCollection",
  "features": [
    {
      "type": "Feature",
      "properties": {
        "norad_id": 34389,
        "name": "COSMOS 2251 DEB",
        "group": "cosmos-2251-debris",
        "lat": -33.47119228203086,
        "lon": 98.98350394450266,
        "alt_km": 779.1786366506012,
        "timestamp": "2025-12-02T21:34:01.664894+00:00",
        "meta_object_name": "COSMOS 2251 DEB",
        "meta_object_id": "1993-036QE",
        "meta_epoch": "2025-12-02T06:08:44.163744",
        "meta_mean_motion": 14.41485491,
        "meta_eccentricity": 0.0028429,
        "meta_inclination": 74.0187,
        "meta_ra_of_asc_node": 269.2523,
        "meta_arg_of_pericenter": 23.6415,
        "meta_mean_anomaly": 98.1967,
        "meta_ephemeris_type": 0,
        "meta_classification_type": "U",
        "meta_norad_cat_id": 34389,
        "meta_element_set_no": 999,
        "meta_rev_at_epoch": 87861,
        "meta_bstar": 0.0005724,
        "meta_mean_motion_dot": 1.841e-05,
        "meta_mean_motion_ddot": 0,
        "tle_line1": "1 34389U 93036QE  25336.25606671  .00001841  00000+0  57240-3 0  9994",
        "tle_line2": "2 34389  74.0187 269.2523 0028429  23.6415  98.1967 14.41485491878612"
      },
      "geometry": {
        "type": "Point",
        "coordinates": [
          98.98350394450266,
          -33.47119228203086
        ]
      }
    },
    {
      "type": "Feature",
      "properties": {
        "norad_id": 34396,
        "name": "COSMOS 2251 DEB",
        "group": "cosmos-2251-debris",
        "lat": 58.29634335083342,
        "lon": 170.87264440028093,
        "alt_km": 645.4073627993866,
        "timestamp": "2025-12-02T21:34:01.664905+00:00",
        "meta_object_name": "COSMOS 2251 DEB",
        "meta_object_id": "1993-036QM",
        "meta_epoch": "2025-12-02T11:39:27.604224",
        "meta_mean_motion": 14.73944234,
        "meta_eccentricity": 0.0007596,
        "meta_inclination": 74.0275,
        "meta_ra_of_asc_node": 144.0532,
        "meta_arg_of_pericenter": 186.3768,
        "meta_mean_anomaly": 205.9982,
        "meta_ephemeris_type": 0,
        "meta_classification_type": "U",
        "meta_norad_cat_id": 34396,
        "meta_element_set_no": 999,
        "meta_rev_at_epoch": 88195,
        "meta_bstar": 0.0025236,
        "meta_mean_motion_dot": 0.00016585,
        "meta_mean_motion_ddot": 0,
        "tle_line1": "1 34396U 93036QM  25336.48573616  .00016585  00000+0  25236-2 0  9999",
        "tle_line2": "2 34396  74.0275 144.0532 0007596 186.3768 205.9982 14.73944234881954"
      },
      "geometry": {
        "type": "Point",
        "coordinates": [
          170.87264440028093,
          58.29634335083342
        ]
      }
    },
    {
      "type": "Feature",
      "properties": {
        "norad_id": 34400,
        "name": "COSMOS 2251 DEB",
        "group": "cosmos-2251-debris",
        "lat": -35.14700118520021,
        "lon": -123.25196234498557,
        "alt_km": 424.8350884855572,
        "timestamp": "2025-12-02T21:34:01.664915+00:00",
        "meta_object_name": "COSMOS 2251 DEB",
        "meta_object_id": "1993-036QR",
        "meta_epoch": "2025-12-02T11:19:37.482240",
        "meta_mean_motion": 15.47946914,
        "meta_eccentricity": 0.0007943,
        "meta_inclination": 73.9694,
        "meta_ra_of_asc_node": 46.0055,
        "meta_arg_of_pericenter": 269.2136,
        "meta_mean_anomaly": 90.8166,
        "meta_ephemeris_type": 0,
        "meta_classification_type": "U",
        "meta_norad_cat_id": 34400,
        "meta_element_set_no": 999,
        "meta_rev_at_epoch": 89815,
        "meta_bstar": 0.003786,
        "meta_mean_motion_dot": 0.0020301,
        "meta_mean_motion_ddot": 0,
        "tle_line1": "1 34400U 93036QR  25336.47196160  .00203010  00000+0  37860-2 0  9996",
        "tle_line2": "2 34400  73.9694  46.0055 0007943 269.2136  90.8166 15.47946914898154"
      },
      "geometry": {
        "type": "Point",
        "coordinates": [
          -123.25196234498557,
          -35.14700118520021
        ]
      }
    },
    {
      "type": "Feature",
      "properties": {
        "norad_id": 34409,
        "name": "COSMOS 2251 DEB",
        "group": "cosmos-2251-debris",
        "lat": 12.444101692162265,
        "lon": 141.9133693658177,
        "alt_km": 732.0017441091823,
        "timestamp": "2025-12-02T21:34:01.664925+00:00",
        "meta_object_name": "COSMOS 2251 DEB",
        "meta_object_id": "1993-036RA",
        "meta_epoch": "2025-12-02T07:55:40.277856",
        "meta_mean_motion": 14.5798624,
        "meta_eccentricity": 0.0079423,
        "meta_inclination": 74.0627,
        "meta_ra_of_asc_node": 326.6075,
        "meta_arg_of_pericenter": 43.7878,
        "meta_mean_anomaly": 20.741,
        "meta_ephemeris_type": 0,
        "meta_classification_type": "U",
        "meta_norad_cat_id": 34409,
        "meta_element_set_no": 999,
        "meta_rev_at_epoch": 89041,
        "meta_bstar": 0.00030421,
        "meta_mean_motion_dot": 1.429e-05,
        "meta_mean_motion_ddot": 0,
        "tle_line1": "1 34409U 93036RA  25336.33032729  .00001429  00000+0  30421-3 0  9997",
        "tle_line2": "2 34409  74.0627 326.6075 0079423  43.7878  20.7410 14.57986240890411"
      },
      "geometry": {
        "type": "Point",
        "coordinates": [
          141.9133693658177,
          12.444101692162265
        ]
      }
    },
    {
      "type": "Feature",
      "properties": {
        "norad_id": 34410,
        "name": "COSMOS 2251 DEB",
        "group": "cosmos-2251-debris",
        "lat": -51.23092650103694,
        "lon": 123.99847361481162,
        "alt_km": 525.2696836689365,
        "timestamp": "2025-12-02T21:34:01.664935+00:00",
        "meta_object_name": "COSMOS 2251 DEB",
        "meta_object_id": "1993-036RB",
        "meta_epoch": "2025-12-02T06:51:50.804352",
        "meta_mean_motion": 15.17325532,
        "meta_eccentricity": 0.0020793,
        "meta_inclination": 73.7387,
        "meta_ra_of_asc_node": 283.9884,
        "meta_arg_of_pericenter": 125.3031,
        "meta_mean_anomaly": 3.6646,
        "meta_ephemeris_type": 0,
        "meta_classification_type": "U",
        "meta_norad_cat_id": 34410,
        "meta_element_set_no": 999,
        "meta_rev_at_epoch": 89615,
        "meta_bstar": 0.0026855,
        "meta_mean_motion_dot": 0.00054239,
        "meta_mean_motion_ddot": 0,
        "tle_line1": "1 34410U 93036RB  25336.28600468  .00054239  00000+0  26855-2 0  9996",
        "tle_line2": "2 34410  73.7387 283.9884 0020793 125.3031   3.6646 15.17325532896155"
      },
      "geometry": {
        "type": "Point",
        "coordinates": [
          123.99847361481162,
          -51.23092650103694
        ]
      }
    },
    {
      "type": "Feature",
      "properties": {
        "norad_id": 34412,
        "name": "COSMOS 2251 DEB",
        "group": "cosmos-2251-debris",
        "lat": 40.008240179314086,
        "lon": -2.900261799121465,
        "alt_km": 626.9202378765294,
        "timestamp": "2025-12-02T21:34:01.664946+00:00",
        "meta_object_name": "COSMOS 2251 DEB",
        "meta_object_id": "1993-036RD",
        "meta_epoch": "2025-12-02T09:45:44.412192",
        "meta_mean_motion": 14.46977989,
        "meta_eccentricity": 0.0187134,
        "meta_inclination": 73.9481,
        "meta_ra_of_asc_node": 344.0396,
        "meta_arg_of_pericenter": 81.6153,
        "meta_mean_anomaly": 280.6171,
        "meta_ephemeris_type": 0,
        "meta_classification_type": "U",
        "meta_norad_cat_id": 34412,
        "meta_element_set_no": 999,
        "meta_rev_at_epoch": 87501,
        "meta_bstar": 0.00095275,
        "meta_mean_motion_dot": 4.286e-05,
        "meta_mean_motion_ddot": 0,
        "tle_line1": "1 34412U 93036RD  25336.40676403  .00004286  00000+0  95275-3 0  9994",
        "tle_line2": "2 34412  73.9481 344.0396 0187134  81.6153 280.6171 14.46977989875015"
      },
      "geometry": {
        "type": "Point",
        "coordinates": [
          -2.900261799121465,
          40.008240179314086
        ]
      }
    },
    {
      "type": "Feature",
      "properties": {
        "norad_id": 34413,
        "name": "COSMOS 2251 DEB",
        "group": "cosmos-2251-debris",
        "lat": 73.47498703293653,
        "lon": 27.921312456019674,
        "alt_km": 790.9043849466934,
        "timestamp": "2025-12-02T21:34:01.664957+00:00",
        "meta_object_name": "COSMOS 2251 DEB",
        "meta_object_id": "1993-036RE",
        "meta_epoch": "2025-12-01T21:52:09.533280",
        "meta_mean_motion": 14.28941876,
        "meta_eccentricity": 0.00906097,
        "meta_inclination": 74.0308,
        "meta_ra_of_asc_node": 284.5417,
        "meta_arg_of_pericenter": 3.0751,
        "meta_mean_anomaly": 52.7387,
        "meta_ephemeris_type": 0,
        "meta_classification_type": "U",
        "meta_norad_cat_id": 34413,
        "meta_element_set_no": 999,
        "meta_rev_at_epoch": 86976,
        "meta_bstar": 0.002097301,
        "meta_mean_motion_dot": 5.517e-05,
        "meta_mean_motion_ddot": 0,
        "tle_line1": "1 34413U 93036RE  25335.91122145  .00005517  00000+0  20973-2 0  9999",
        "tle_line2": "2 34413  74.0308 284.5417 0090609   3.0751  52.7387 14.28941876869768"
      },
      "geometry": {
        "type": "Point",
        "coordinates": [
          27.921312456019674,
          73.47498703293653
        ]
      }
    }
  ]
}